,City,Country,Lat,Lng,Hotel Name
0,ostrovnoy,RU,68.05,39.51,Sberbank Rossii
1,mahebourg,MU,-20.41,57.7,Holiday Inn Mauritius Mon Tresor
2,qaanaaq,GL,77.48,-69.36,Qaanaaq Hotel
3,zhuhai,CN,40.71,112.04,
4,cape town,ZA,-33.93,18.42,Atlanticview Cape Town Boutique Hotel
5,atuona,PF,-9.8,-139.03,Hôtel Hiva Oa Hanakee Lodge
6,flinders,AU,-34.58,150.85,Lakeview Hotel Motel
7,opuwo,,-18.06,13.84,Ohakane Guesthouse
8,tiksi,RU,71.64,128.87,Umka
9,pushkinskiye gory,RU,57.02,28.91,Arina R.
10,aykhal,RU,65.95,111.51,Гостиница Айхал
11,castro,CL,-42.48,-73.76,Mangata Hotel
12,avarua,CK,-21.21,-159.78,Sanctuary Rarotonga-On the Beach
13,saskylakh,RU,71.97,114.09,Sberbank Rossii
14,constitucion,MX,23.99,-104.67,Hotel Gobernador
15,albany,US,42.65,-73.75,Renaissance Albany Hotel
16,vilyuysk,RU,63.75,121.63,"Gostinitsa ""Mariya"""
17,ushuaia,AR,-54.81,-68.31,Los Cauquenes Resort & Spa
18,bambous virieux,MU,-20.34,57.76,Laguna Beach Hotel & Spa
19,kodinsk,RU,58.6,99.18,"Art-Otel' "" Kupecheskiy"""
20,teknaf,BD,20.86,92.31,Milky Resort
21,busselton,AU,-33.64,115.35,Esplanade Hotel
22,ambon,FR,47.55,-2.56,Hotel de la Plage - Damgan - Morbihan - Bretagne
23,maragogi,BR,-9.01,-35.22,Maraga Beach Hostel
24,fallon,US,46.84,-105.12,
25,kantang,TH,7.42,99.52,
26,colonelganj,IN,27.13,81.7,Anand Hotel
27,punta arenas,CL,-53.16,-70.91,Hotel Dreams Del Estrecho
28,rikitea,PF,-23.12,-134.97,Pension Maro'i
29,new norfolk,AU,-42.78,147.06,
30,gobabis,,-22.45,18.97,Goba Lodge
31,qingdao,CN,36.09,120.35,The Westin Qingdao
32,port hardy,CA,50.7,-127.42,Quarterdeck Inn Resort & Marina
33,arman,RU,59.7,150.17,
34,mamakan,RU,57.82,114.02,
35,bethel,US,60.79,-161.76,Long House Hotel Bethel
36,clinton,US,41.84,-90.19,Holiday Inn Express & Suites Clinton
37,varhaug,NO,58.61,5.65,Huset ved havet
38,ayan,TR,40.67,33.6,
39,mayor pablo lagerenza,PY,-19.93,-60.77,
40,hermanus,ZA,-34.42,19.24,The Whale Coast Hotel
41,torbay,CA,47.66,-52.73,Hampton Inn & Suites by Hilton St. John's Airport
42,yellowknife,CA,62.45,-114.38,The Explorer Hotel
43,kruisfontein,ZA,-34.0,24.73,Humansdorp Boutique Hotel
44,puerto ayora,EC,-0.74,-90.35,Ikala
45,rosita,NI,13.92,-84.4,Hotel Terciopelo
46,beloha,MG,-25.17,45.06,
47,port elizabeth,US,39.31,-74.98,Lokal A-Frame
48,port alfred,ZA,-33.59,26.89,MyPond Hotel
49,garchitorena,PH,13.88,123.7,
50,kodiak,US,39.95,-94.76,
51,mar del plata,AR,-46.43,-67.52,Patagonia Hotel
52,taybad,IR,34.74,60.78,سه طبقه خیرخواه
53,cabo san lucas,MX,22.89,-109.91,Waldorf Astoria Los Cabos Pedregal
54,tiarei,PF,-17.53,-149.33,Le Rocher de Tahiti
55,khatanga,RU,71.98,102.47,"Gostinitsa ""Zapolyar'ye"""
56,pisco,PE,-13.71,-76.2,HOSTAL MIRAMAR
57,kolyvan,RU,55.31,82.74,
58,hofn,IS,64.25,-15.21,Hótel Höfn
59,bontang,ID,0.12,117.47,Hotel Gembira
60,sault sainte marie,CA,46.49,-84.36,"Quattro Hotel & Conf. Centre, Ascend Hotel Collection"
61,zhigansk,RU,66.77,123.37,Sberbank Rossii
62,thompson,CA,55.74,-97.86,Quality Inn & Suites Thompson
63,pevek,RU,69.7,170.27,Severnoye Zoloto
64,nanortalik,GL,60.14,-45.24,Hotel Kap Farvel
65,bilibino,RU,68.06,166.44,Profilaktoriy Baes
66,dikson,RU,73.51,80.55,
67,hambantota,LK,6.12,81.12,The Peacock Beach Hotel Hambantota
68,beja,PT,38.02,-7.87,Hotel Bejense
69,fortuna,ES,38.18,-1.13,Hotel La Fuente
70,ponta do sol,BR,-20.63,-46.0,Camaleao Hostel
71,qasigiannguit,GL,68.82,-51.19,Qasigiannguit
72,butaritari,KI,3.07,172.79,
73,virginia beach,US,36.85,-75.98,Hilton Virginia Beach Oceanfront
74,hobyo,SO,5.35,48.53,Osmani Hotel
75,saint george,GR,39.45,22.34,
76,pontes e lacerda,BR,-15.23,-59.33,Hotel Bressan
77,khor,RU,47.88,134.96,Provintsiya
78,crotone,IT,39.09,17.12,Helios Hotel
79,baglung,NP,28.27,83.59,"Hotel Peace Palace, Baglung, Nepal"
80,raglan,NZ,-37.8,174.87,Raglan Harbour View Hotel
81,jamestown,AU,-33.21,138.6,Railway Hotel-Motel Jamestown
82,sur,OM,22.57,59.53,Sur Plaza Hotel
83,araouane,ML,18.9,-3.53,
84,emerald,AU,-23.53,148.16,Stay On Sullivan
85,launceston,AU,-41.43,147.14,Change Overnight
86,nikolskoye,RU,59.7,30.79,
87,ambilobe,MG,-13.19,49.05,Hotel National
88,cidreira,BR,-30.17,-50.22,Hotel Castelo
89,ternate,PH,14.29,120.72,Dalaroy Beach Resort
90,tarauaca,BR,-8.16,-70.77,Hotel Ferreira
91,bella vista,AR,-28.51,-59.05,Hotel Río Arriba
92,xichang,CN,27.88,102.25,Badiya Commercial Hotel
93,antioch,US,38.0,-121.81,Best Western Plus Delta Inn & Suites
94,najran,SA,17.54,44.22,The District Hotel Najran
95,agirish,RU,61.92,63.02,
96,mataura,NZ,-46.19,168.86,Falls Hotel
97,katsuura,JP,33.93,134.5,
98,shalinskoye,RU,55.72,93.76,Belaya Sova
99,barrow,AR,-38.31,-60.23,
100,sorong,ID,-0.86,131.25,Mariat Hotel
101,kingston,CA,44.23,-76.48,Thriftlodge Kingston
102,ketchikan,US,55.34,-131.65,Cape Fox Lodge
103,kapaa,US,22.08,-159.32,Hilton Garden Inn Kauai Wailua Bay
104,mbigou,GA,-1.9,11.91,
105,yakeshi,CN,49.28,120.73,Yakeshi Hotel
106,hilo,US,19.71,-155.08,Hilo Hawaiian Hotel
107,whitehorse,CA,60.72,-135.06,Skky Hotel
108,bonthe,SL,7.53,-12.5,Bonthe Holiday Village
109,bara,NG,10.41,10.6,
110,lompoc,US,34.64,-120.46,Embassy Suites by Hilton Lompoc Central Coast
111,port blair,IN,11.67,92.75,"The Tamarind Tree Hotel & Restaurant, Port Blair."
112,bredasdorp,ZA,-34.53,20.04,Rooftops Guest Cottage
113,thinadhoo,MV,0.53,72.93,
114,koumac,NC,-20.56,164.28,Hotel Karem Bay
115,faanui,PF,-16.48,-151.75,InterContinental Bora Bora Resort Thalasso Spa
116,xam nua,LA,20.42,104.04,Keochinda hotel
117,east london,ZA,-33.02,27.91,Blue Lagoon Hotel
118,sao filipe,CV,14.9,-24.5,Hotel Xaguate
119,deputatskiy,RU,69.3,139.9,Sberbank Rossii
120,chuy,UY,-33.69,-53.46,Turis Firper Hotel
121,sitka,US,37.17,-99.65,
122,forio,IT,40.73,13.86,Mezzatorre Hotel & Thermal Spa
123,russkaya polyana,RU,53.78,73.88,Лагуна
124,san felipe,CL,-32.75,-70.73,Hotel Estación San Felipe
125,arraial do cabo,BR,-22.97,-42.02,Orlanova Boutique Hotel
126,margate,AU,-43.03,147.26,
127,aklavik,CA,68.22,-135.01,Sundog Inn
128,lokosovo,RU,61.13,74.84,
129,paita,PE,-5.09,-81.11,Hotel Marina Del Bay
130,cravo norte,CO,6.3,-70.2,Hotel El Merecure
131,motygino,RU,58.18,94.69,Gostinitsa Ip Zabirov
132,west wendover,US,40.74,-114.07,Best Western Plus Wendover Inn
133,adrar,DZ,27.87,-0.29,Hôtel TAKIALT
134,melfi,IT,41.0,15.66,Casa Isabela luxury room
135,kibaya,RW,-2.2,30.56,Kibungo - Centre St. Joseph Guest House
136,iqaluit,CA,63.75,-68.52,Frobisher Inn
137,lavrentiya,RU,65.58,-170.99,Sberbank Rossii
138,morondava,MG,-20.3,44.28,Palissandre Cote Ouest resort & SPA
139,vaini,IN,15.34,74.49,Dandeli Dreams Jungle Resort
140,georgetown,GY,6.8,-58.16,Guyana Marriott Hotel Georgetown
141,sanchazi,CN,30.43,103.62,
142,sarai mir,IN,26.02,82.92,Bhola T Center
143,yichun,CN,47.72,128.88,Xinhao Business Hotel
144,plainview,US,34.18,-101.71,Holiday Inn Express & Suites Plainview
145,comodoro rivadavia,AR,-45.87,-67.48,Lucania Palazzo Hotel
146,nardaran,AZ,40.56,50.01,
147,nagua,DO,19.37,-69.85,Hotel Cambri
148,ibra,OM,22.69,58.55,Ibra Hotel
149,ganzhou,CN,25.86,114.93,Junjia Wanfu Hotel
150,talnakh,RU,69.49,88.39,Talnakh Hotel
151,coahuayana,MX,18.62,-100.35,
152,sinnamary,GF,5.38,-52.96,Hotel Du Fleuve
153,porto novo,BR,-23.68,-45.44,Hotel Pousada Paradise
154,havoysund,NO,71.0,24.66,Havøysund Hotel & Rorbuer
155,bjornevatn,NO,69.67,29.98,Snowhotel Kirkenes & Gamme Northern Lights Cabins
156,narsaq,GL,60.91,-46.05,Hotel Narsaq
157,charlestown,US,41.38,-71.64,General Stanton Inn
158,trat,TH,12.25,102.51,J.P. Grand Hotel
159,manado,ID,1.49,124.85,Aryaduta Hotel
160,trapani,IT,38.02,12.54,BADIA NUOVA apart hotel • restaurant • rooftop lounge bar
161,sao joao da barra,BR,-21.64,-41.05,Pousada Kactus
162,saint-philippe,CA,45.36,-73.48,
163,haines junction,CA,60.75,-137.51,Kluane Park Inn & RV Park
164,kathmandu,NP,27.71,85.32,Shangrila Boutique Hotel
165,norman wells,CA,65.28,-126.83,Heritage Hotel
166,brainerd,US,46.36,-94.2,"Country Inn & Suites by Radisson, Baxter, MN"
167,yumen,CN,40.29,97.04,Yusheng Business Hotel
168,straumen,NO,63.87,11.3,Øyna
169,camacha,PT,33.08,-16.33,Hotel Porto Santo & Spa
170,teya,MX,21.05,-89.07,
171,vitim,RU,59.44,112.57,Sberbank Rossii
172,antsohihy,MG,-14.88,47.99,Hotel Tiako
173,kavieng,PG,-2.57,150.8,Nusa Island Retreat
174,la esperanza,HN,14.31,-88.18,Huella Lenca
175,clyde river,CA,70.47,-68.59,Naujaaraaluit – Clyde River Hotel
176,nador,MA,35.17,-2.93,"Hotel Marchica Lagoon Resort, Nador Morocco"
177,keflavik,IS,64.0,-22.56,Diamond Suites Luxury Boutique Hotel
178,faya,SA,18.39,42.45,
179,chokurdakh,RU,70.62,147.9,Sberbank Rossii
180,le marin,MQ,14.47,-60.87,Club Med Les Boucaniers - Martinique
181,tasiilaq,GL,65.61,-37.64,The Red House
182,udachnyy,RU,66.42,112.4,Gostinitsa Vilyuy
183,monrovia,LR,6.33,-10.8,Corina Hotel
184,burnie,AU,-41.05,145.91,Ikon Hotel
185,kaitangata,NZ,-46.28,169.85,Kaitangata Motor Camp
186,yamada,JP,36.58,137.08,
187,mackay,CA,53.65,-115.58,Niton Junction Motel & RV Park
188,lagoa,PT,37.14,-8.45,Hotel In Carvoeiro
189,bluff,AU,-23.58,149.07,Bluff Hotel
190,saint-georges,CA,46.12,-70.67,Comfort Inn
191,naryan-mar,RU,67.67,53.09,"""Avantage"" hotel"
192,port hedland,AU,-20.31,118.58,Hedland Hotel
193,hithadhoo,MV,-0.6,73.08,Abuharee Grand
194,beringovskiy,RU,63.05,179.32,Sberbank Rossii
195,codrington,AU,-28.95,153.24,Coraki Hotel
196,ilulissat,GL,69.22,-51.1,Hotel Arctic
197,coquimbo,CL,-29.95,-71.34,Enjoy Coquimbo Hotel de la Bahía
198,grand baie,MU,-20.02,57.58,Azure Beach Boutique Hotel
199,kaabong,UG,3.51,34.14,KAABONG RESORT HOTEL
200,lazaro cardenas,MX,28.39,-105.62,Hotel Rincon Campestre
201,luanda,AO,-8.83,13.24,Golden Park Hotel
202,rio gallegos,AR,-51.62,-69.22,Hotel Patagonia
203,namatanai,PG,-3.66,152.44,Namatanai Hotel
204,severo-kurilsk,RU,50.68,156.12,Kak Doma
205,hutang,CN,29.22,119.85,
206,namioka,JP,40.71,140.59,
207,mnogovershinnyy,RU,53.94,139.92,Sberbank Rossii
208,san rafael del sur,NI,11.85,-86.44,
209,paamiut,GL,61.99,-49.67,Hotel Ivaana
210,ribeira grande,PT,38.52,-28.7,Quinta Das Buganvílias
211,labuhan,ID,-2.54,115.51,
212,mount gambier,AU,-37.83,140.78,Federal Hotel
213,pesca,CO,5.56,-73.05,
214,mount isa,AU,-20.73,139.49,ibis Styles Mt Isa Verona
215,le port,FR,42.87,1.37,
216,hobart,AU,-42.88,147.33,Islington Hotel
217,dublin,IE,53.35,-6.26,Clontarf Castle Hotel
218,salalah,OM,17.01,54.1,Al Baleed Resort Salalah by Anantara
219,beisfjord,NO,68.38,17.6,
220,ust-tsilma,RU,65.44,52.15,Sberbank Rossii
221,marawi,PH,8.0,124.29,Marawi Resort Hotel
222,samana,EC,0.12,-76.97,LA QUINTA PRIMAVERA
223,koronowo,PL,53.31,17.94,
224,ekimchan,RU,53.07,132.94,"Mini-Gostinitsa ""Ekimchan"""
225,carnarvon,ZA,-30.97,22.13,Dellville Country House & Cottages
226,saint-denis,FR,48.94,2.36,ibis budget Gennevilliers Asnières
227,tabas,IR,33.6,56.92,Amir hotel
228,san pedro,AR,-33.68,-59.66,Howard Johnson San Pedro Marinas Resort
229,aketi,CD,2.74,23.78,
230,moses lake,US,47.13,-119.28,Holiday Inn Express & Suites Moses Lake
231,mocuba,MZ,-16.84,36.99,Pensão Venus
232,hamilton,CA,43.26,-79.87,"Homewood Suites by Hilton Hamilton, Ontario, Canada"
233,san juan del sur,NI,11.25,-85.87,the SPACE.
234,katobu,ID,-4.94,122.53,Balai Desa Kafofo
235,banjar,ID,-7.37,108.54,Banjar Indah Hotel
236,provideniya,RU,64.42,-173.23,Sberbank Rossii
237,andradas,BR,-22.07,-46.57,Hotel Dela Inn
238,bose,IT,45.46,8.01,Cella Grande
239,manzhouli,CN,49.6,117.43,Manzhouli Shangri-La Hotel
240,lockhart,AU,-35.22,146.72,Commercial Hotel
241,anadyr,RU,64.73,177.51,Chukotka hotel
242,bandarbeyla,SO,9.49,50.81,Super secret pirate cove
243,buchach,UA,49.06,25.39,Motelʹ 57 Km
244,pasni,PK,25.26,63.48,Juddi Hotel
245,tuktoyaktuk,CA,69.44,-133.03,Hunter's B&B
246,okha,RU,53.59,142.95,Empire Hotel
247,puerto escondido,MX,15.86,-97.07,Selina Puerto Escondido
248,ancud,CL,-41.87,-73.83,13 Lunas Hostel
249,lebu,ET,8.96,38.73,Elgel Hotel & Spa
250,port lincoln,AU,-34.72,135.86,Port Lincoln Hotel
251,leningradskiy,RU,69.38,178.42,
252,kajaani,FI,64.22,27.73,Kartanohotelli Karolineburg
253,murray bridge,AU,-35.12,139.28,Balcony On Sixth Lodge
254,rocha,UY,-34.48,-54.34,Casa Rodo 53
255,tagusao,PH,9.19,117.81,"Shaman's Breath- Beach, Bed & Breakfast"
256,cobija,BR,-11.02,-68.77,Un Hotel
257,port-gentil,GA,-0.72,8.78,HOTEL CHEZ JIMMY
258,te anau,NZ,-45.41,167.72,Lakefront Lodge Te Anau
259,hami,CN,42.84,93.51,Hami Hotel
260,pahrump,US,36.21,-115.98,Holiday Inn Express & Suites Pahrump
261,fort frances,CA,48.61,-93.4,"Cantilever Hotel, Trademark Collection by Wyndham"
262,umtata,ZA,-31.59,28.78,Garden Court Mthatha
263,markova,RU,52.21,104.21,
264,saint-leu,RE,-21.15,55.28,Iloha Seaview Hotel
265,jalu,LY,29.03,21.55,Jalu Hotel
266,alice springs,AU,-23.7,133.88,DoubleTree by Hilton Hotel Alice Springs
267,zaraza,VE,9.35,-65.33,Hotel Central Suites
268,dingle,PH,11.0,122.67,
269,bodden town,KY,19.28,-81.25,Turtle Nest Inn & Condos
270,griffith,AU,-34.29,146.06,Quest Griffith
271,coihaique,CL,-45.58,-72.07,Hostal Casa Arrayan
272,sao felix do xingu,BR,-6.64,-51.99,Hotel Serrano
273,santa rosa,AR,-36.62,-64.29,La Campiña Club
274,goderich,CA,43.74,-81.71,Comfort Inn & Suites
275,vila velha,BR,-3.71,-38.6,Sesc Iparana - Hotel Ecológico
276,rabo de peixe,PT,37.8,-25.58,Santa Barbara Eco-Beach Resort
277,soyo,AO,-6.13,12.37,"Kinwica Resort-Hotel (Soyo, Angola)"
278,cayenne,GF,4.94,-52.33,Royal Amazonia
279,saldanha,PT,41.42,-6.55,
280,santa ines,EC,-0.82,-78.63,Hacienda Hato Verde
281,hasaki,JP,35.73,140.83,別邸 海と森
282,slave lake,CA,55.28,-114.77,Northern Star Hotel & Convention Center
283,christchurch,NZ,-43.53,172.64,247 Studios On Bealey
284,kibakwe,TZ,-6.71,36.37,
285,luderitz,,-26.65,15.16,Prospectors Inn Hotel
286,san andres,PH,13.32,122.68,Trishcia's Guest House
287,pangnirtung,CA,66.15,-65.72,Auyuittuq Lodge (Inns North)
288,san quintin,PH,17.54,120.52,
289,union,US,47.36,-123.1,Alderbrook Resort & Spa
290,dudinka,RU,69.41,86.18,Hotel Viktoria
291,florida,CU,21.53,-78.23,Hotel Florida
292,madikeri,IN,12.42,75.74,Karkera Comforts
293,esperance,TT,10.24,-61.45,The Royal Hotel
294,takoradi,GH,4.89,-1.75,Best Western Plus Atlantic Hotel
295,lokomotivnyy,RU,53.01,60.57,Gostinitsa Lyuks
296,khash,IR,28.22,61.21,بانک تجارت
297,mogok,MM,22.92,96.51,Mount Mogok Hotel
298,mikkeli,FI,61.69,27.27,Hotel Uusikuu
299,jiuquan,CN,39.73,98.49,Jiuquan Hotel
300,betafo,MG,-19.84,46.86,
301,aitape,PG,-3.15,142.36,
302,alofi,NU,-19.06,-169.92,Taloa Heights
303,yulara,AU,-25.24,130.99,Sails in the Desert
304,kvarkeno,RU,52.08,59.73,"Ooo ""Kvarkeno"""
305,salinopolis,BR,-0.61,-47.36,Hotel Concha do Mar
306,chunhuhub,MX,19.59,-88.59,
307,dunedin,NZ,-45.87,170.5,Hotel Saint Clair
308,nioro,GM,13.79,-15.05,
309,upernavik,GL,72.79,-56.15,Café de Upernavik
310,airai,TL,-8.93,125.41,
311,balkanabat,TM,39.51,54.36,Nebitchi Hotel
312,syumsi,RU,57.11,51.61,"Gostinitsa ""Polar"""
313,loukhi,RU,66.08,33.04,Remstroyrekonstruktsiya
314,baruun-urt,MN,46.68,113.28,Orgin Hotel
315,miraflores,CO,5.2,-73.14,Hotel Dann'a
316,gunjur,GM,13.18,-16.76,"Footsteps Eco Lodge, The Gambia"
317,wajima,JP,37.4,136.9,Hotel Route-Inn Wajima
318,buala,SB,-8.15,159.59,Ghaseali Island Resort
319,acari,BR,-6.44,-36.64,Pousada Gargalheiras
320,banfora,BF,10.64,-4.75,HOTEL CASCADES PALACE
321,mandera,ET,3.94,41.86,Granada hotel Mandera
322,tshikapa,CD,-6.42,20.79,"Hotel Paradis de Tshikapa, Congo"
323,juneau,US,58.3,-134.42,Four Points by Sheraton Juneau
324,sidney,US,47.72,-104.16,Holiday Inn Express & Suites Sidney
325,edd,ER,13.93,41.69,
326,cockburn town,TC,21.46,-71.14,Osprey Beach Hotel
327,kizukuri,JP,40.81,140.39,Hotel Sunroute Goshogawara
328,vung tau,VN,10.35,107.08,OYO 159 Ruby Hotel
329,mahon,IE,51.89,-8.4,The Dean Cork
330,biltine,TD,14.53,20.93,
331,ishigaki,JP,24.34,124.16,ＨＯＴＥＬ Ｍｒ．ＫＩＮＪＯ ＧＯＬＤＥＮ ＣＡＴＳ
332,morant bay,JM,17.88,-76.41,Golden Shore Resort
333,raduzhnyy,RU,62.1,77.47,Gostinitsa Zodiak
334,san patricio,PY,-26.98,-56.83,
335,hulan ergi,CN,47.2,123.63,Jiajia Express Hotel
336,thayetmyo,MM,19.32,95.18,Aye Chan Myaing Hotel
337,acapulco,MX,16.86,-99.88,Hotel Costa Miramar
338,port shepstone,ZA,-30.74,30.45,Umthunzi Hotel & Conference
339,tautira,PF,-17.73,-149.15,
340,la libertad,PE,-16.38,-71.56,Arequipa Suites Plaza Hotel
341,raymond,US,43.04,-71.18,Pine Acres Resort
342,road town,VG,18.42,-64.62,Wyndham Tortola BVI Lambert Beach Resort
343,yar-sale,RU,66.83,70.83,"Hotel ""Nord House"""
344,iwanai,JP,42.97,140.51,いわない高原ホテル
345,eseka,CM,3.65,10.77,Hotel Eseka Palace
346,chiredzi,ZW,-21.05,31.67,The Nesbitt Arms
347,tigil,RU,57.8,158.67,Sberbank Rossii
348,avera,US,33.19,-82.53,
349,muzhi,RU,65.4,64.7,Sberbank
350,komsomolskiy,RU,67.55,63.78,
351,chapais,CA,49.78,-74.86,Hôtel Opémiska
352,biak,ID,-0.91,122.88,
353,darhan,MN,49.49,105.92,MBM HOTEL
354,daru,SL,7.99,-10.85,
355,onokhoy,RU,51.92,108.05,
356,leh,IN,34.16,77.58,Yarab Tso Hotel
357,banda aceh,ID,5.56,95.32,Hotel Grand Nanggroe
358,alyangula,AU,-13.85,136.42,Groote Eylandt Lodge
359,sorland,NO,67.67,12.69,Lofoten Værøy Brygge
360,fort nelson,CA,58.81,-122.69,Lakeview Inns & Suites - Fort Nelson
361,boyolangu,ID,-8.09,111.9,Crown Victoria Hotel
362,datong,CN,40.09,113.3,Datong Hotel
363,vila franca do campo,PT,37.72,-25.43,Quinta Lirica
364,akureyri,IS,65.68,-18.09,Hotel Kjarnalundur
365,ulladulla,AU,-35.36,150.48,Mollymook Motel
366,ust-barguzin,RU,53.41,109.03,Barguzinskiy Priboy Inn
367,pampierstad,ZA,-27.78,24.69,Legae Lodge Pampierstad
368,zyryanovsk,KZ,49.74,84.27,Malaya Gostinitsa
369,cooma,AU,-36.24,149.13,Royal Hotel Cooma
370,sfantu gheorghe,RO,44.65,26.83,Motel Valentina
371,carballo,ES,43.21,-8.69,Hotel Pensua Punta Del Este
372,shimoda,JP,34.7,138.93,伊豆の下田「相玉温泉」里山の別邸 下田sentoraruhoteru
373,novonukutskiy,RU,53.7,102.71,Sberbank Rossii
374,reguengos de monsaraz,PT,38.42,-7.53,Aqui Jardim
375,ocean city,US,30.44,-86.61,The Island Ft Walton Destin by Hotel RL
376,qinhuangdao,CN,39.94,119.59,Qinhuangdao Great Wall Hotel
377,muskegon,US,43.23,-86.25,Clarion Inn & Suites
378,kargasok,RU,59.06,80.87,Gostitsa Severyanka
379,auki,NG,12.18,6.51,
380,kayseri,TR,38.73,35.48,Wyndham Grand Kayseri
381,quanzhou,CN,24.9,118.59,InterContinental Quanzhou
382,nago,IT,45.88,10.89,Gest Hotel S.R.L.
383,medicine hat,CA,50.04,-110.68,Quality Inn
384,cherskiy,RU,68.75,161.3,Sberbank
385,santa maria,BR,-29.69,-53.81,Itaimbé Palace Hotel
386,north bend,US,43.41,-124.22,Quality Inn & Suites At Coos Bay
387,el alto,BO,-16.5,-68.19,Onkel Inn Airport Sleepbox
388,geraldton,CA,49.72,-86.95,Silver Nugget Motor Hotel
389,souillac,FR,45.6,-0.6,Saint James House
390,la ronge,CA,55.1,-105.3,La Ronge Hotel & Suites
391,namibe,AO,-15.19,12.15,iu Hotel Namibe
392,westport,IE,53.8,-9.52,The Castlecourt Hotel
393,juiz de fora,BR,-21.76,-43.35,Victory Business Hotel
394,lagos,NG,6.46,3.39,HOTEL BON VOYAGE
395,half moon bay,US,37.46,-122.43,Beach House - Half Moon Bay
396,nelson bay,AU,-32.72,152.14,Amarna Luxury Beach Resort - Guest Only
397,tuatapere,NZ,-46.13,167.69,Last Light Lodge
398,grindavik,IS,63.84,-22.43,Silica Hotel
399,xining,CN,36.62,101.77,Sofitel Xining
400,kieta,PG,-6.22,155.63,
401,kalabo,ZM,-15.0,22.67,HM Sams Lodge
402,sambava,MG,-14.27,50.17,Carrefour
403,wawa,NG,9.9,4.41,
404,manama,AE,25.33,56.02,Rivaloo Farm
405,labuan,BN,5.28,115.24,Hotel Labuan Point
406,wexford,US,40.63,-80.06,Hampton Inn Pittsburgh/ Wexford-Sewickley
407,kyren,RU,51.68,102.13,Tunka-350
408,boquira,BR,-12.82,-42.73,Restaurante e Pousada Boquira
409,bathsheba,BB,13.22,-59.52,ECO Lifestyle & Lodge
410,ogbomosho,NG,8.13,4.25,Ragaray Executive Suites
411,longyearbyen,NO,78.22,15.63,"Radisson Blu Polar Hotel, Spitsbergen"
412,diu,IN,20.71,70.98,Hotel Mozambique
413,shebalino,RU,51.29,85.68,
414,kalat,PK,29.03,66.58,Balochistan Hotel
415,hare bay,CA,48.86,-53.99,
416,kirkuk,IQ,35.47,44.4,Hotel snubal
417,tabou,CI,4.42,-7.36,hotêl doufoulougou
418,ahipara,NZ,-35.17,173.16,Endless Summer Lodge - Guest House
419,byron bay,AU,-28.65,153.62,"Byron at Byron, a Crystalbrook Collection Resort"
420,isangel,VU,-19.55,169.27,Volcano Sea View Tree House
421,saint-joseph,FR,43.56,6.97,Hotel Verlaine
422,susuman,RU,62.78,148.15,Gostinitsa Susumanzoloto
423,plattling,DE,48.78,12.88,Hotel Liebl
424,arenapolis,BR,-14.45,-56.85,Hotel Karysmã
425,tocopilla,CL,-22.09,-70.2,Hostal Paraiso
426,arroyo,US,41.39,-78.88,
427,hastings,NZ,-39.64,176.84,Cottages on St Andrews
428,okhotsk,RU,59.36,143.24,Prozhivaniye V Okhotske
429,maniitsoq,GL,65.42,-52.9,Hotel Maniitsoq
430,meulaboh,ID,4.14,96.13,EVA SKY HOTEL
431,cartagena del chaira,CO,1.33,-74.84,Hotel Los Corceles
432,macau,BR,-5.11,-36.64,Hotel Gamboa Premium Macau
433,svodin,SK,47.91,18.5,
434,victoria,BN,5.28,115.24,Hotel Labuan Point
435,dong xoai,VN,11.53,106.92,Khách sạn + nhà nghỉ Ban Mai
436,zaysan,KZ,47.47,84.87,Zaysan Hotel
437,sioux lookout,CA,50.1,-91.92,Sioux Lookout Inn & Suites
438,waipawa,NZ,-39.94,176.59,
439,vila do maio,CV,15.13,-23.22,Big Game Maio
440,brae,GB,60.4,-1.35,Brae Hotel
441,russkiy aktash,RU,55.04,52.12,Gostinitsa Ivushka
442,kokstad,ZA,-30.55,29.42,The Old Orchard Guest House
443,lucapa,AO,-8.42,20.74,
444,birjand,IR,32.86,59.22,Ghaem Hotel
445,ingham,AU,-18.65,146.16,Motel Ingham
446,henties bay,,-22.12,14.28,Desert Rose
447,tilichiki,RU,60.47,166.1,
448,doha,QA,25.29,51.53,La Villa Palace Hotel
449,makakilo city,US,21.35,-158.09,"Aulani, A Disney Resort & Spa"
450,lorengau,PG,-2.02,147.27,Lorengau Harbourside Hotel
451,anan,JP,33.91,134.64,Hotel Route Inn Anan
452,synya,RU,65.37,58.04,
453,thanatpin,MM,17.29,96.58,
454,altagracia de orituco,VE,9.86,-66.38,Hacienda la Quinta
455,anqing,CN,30.51,117.04,君澜豪庭酒店
456,nome,US,30.04,-94.42,
457,lahaina,US,20.87,-156.68,"Marriott's Maui Ocean Club - Molokai, Maui & Lanai Towers"
458,hereford,GB,52.06,-2.72,Somerville House
459,san ramon de la nueva oran,AR,-23.13,-64.33,Nuevo Hotel Argentino
460,manuk mangkaw,PH,4.8,119.85,
461,prainha,BR,-1.8,-53.48,R&A Hotel
462,pacific grove,US,36.62,-121.92,Hotel 1110
463,tam ky,VN,15.57,108.48,Ba Cơ Boutique Hotel
464,atasu,KZ,48.68,71.64,
465,seshcha,RU,53.73,33.34,Sberbank Rossii
466,norilsk,RU,69.35,88.2,Apartment on Begicheva 24
467,los teques,VE,10.35,-67.04,
468,san cristobal,EC,-0.39,-78.55,Hospedaje - Casa 929
469,san ramon,NI,12.92,-85.84,Hotel y Restaurante El Sueño de la Campana
470,horta,ES,41.43,2.16,Hotel SB Glow
471,poum,MK,41.28,20.71,
472,sawtell,AU,-30.38,153.1,Alarks Nest Bed & Breakfast Pet Friendly
473,seoul,KR,37.57,126.98,Solaria Nishitetsu Hotel Seoul
474,plettenberg bay,ZA,-34.05,23.37,Formosa Bay Resort
475,oranjestad,AW,12.52,-70.03,Hyatt Place Aruba Airport
476,belmonte,PT,40.36,-7.35,Belmonte Sinai Hotel
477,bundaberg,AU,-24.87,152.35,Burnett Riverside Hotel
478,samarinda,ID,-0.5,117.14,ibis Samarinda
479,zhezkazgan,KZ,47.8,67.71,Hotel Zumrat
480,abonnema,NG,4.71,6.79,
481,narok,KE,-1.09,35.87,Zebu Lodge & Luxury Hotel
482,muravlenko,RU,63.79,74.5,E-Hotel Muravlenko
483,necochea,AR,-38.55,-58.74,Hotel Mirasol
484,talcahuano,CL,-36.72,-73.12,Hotel Terrasur
485,san-pedro,CI,4.75,-6.64,hotel residence christy
486,bismarck,US,46.81,-100.78,Radisson Hotel Bismarck
487,pinotepa de don luis,MX,16.43,-97.98,
488,mizan teferi,ET,6.99,35.58,Kashinin Hotel Ethiopia
489,bonfim,BR,-20.33,-44.24,Casa de Veraneio Villa Lopes
490,oga,NG,8.18,5.65,Romka Holiday Inn
491,bouca,CF,6.51,18.28,
492,bolobo,CD,-2.17,16.23,
493,nuuk,GL,64.17,-51.74,Hotel Hans Egede
494,baylo,PH,7.85,126.06,
495,fuxin,CN,42.02,121.65,Starlight Hotel
496,chernaya kholunitsa,RU,58.85,51.72,Sberbank Rossii
497,havelock,US,34.88,-76.9,Holiday Inn Express & Suites Havelock NW-New Bern
498,traverse city,US,44.76,-85.62,Park Place Hotel and Conference Center
499,champoton,MX,19.35,-90.72,Hotel Perla del Mar Champotón
500,mandalgovi,MN,45.76,106.27,Mandal Hotel
501,delemont,CH,47.36,7.34,Hotel Victoria Delèmont
502,chauk,MM,20.89,94.82,Bo Khin Guest House
503,kambove,CD,-10.88,26.6,
504,tutoia,BR,-2.76,-42.27,Hotel Costa do Delta
505,touros,BR,-5.2,-35.46,Hotel Vila Gale Touros
506,babati,TZ,-4.21,35.75,GOOD LIFE HOTEL
507,graaff-reinet,ZA,-32.25,24.53,Drostdy Hotel
508,noumea,NC,-22.28,166.46,Hilton Noumea La Promenade Residences
509,pilot butte,CA,50.48,-104.42,Ramada by Wyndham Emerald Park/Regina East
510,atar,MR,20.52,-13.05,Odar kanawal
511,valenca do piaui,BR,-6.41,-41.75,Hotel Shimamoto
512,natchez,US,31.56,-91.4,Natchez Grand Hotel
513,denpasar,ID,-8.65,115.22,Hotel Santika Seminyak Bali
514,loikaw,MM,19.67,97.21,Kayah Land Hotel
515,madaoua,NE,14.07,5.96,Police Commissioner De Madaoua
516,malindi,KE,-3.22,40.12,Woburn Residence Club
517,along,IN,28.17,94.8,Hotel West
518,bonito,BR,-21.13,-56.49,Pousada Arte da Natureza
519,saint anthony,US,43.97,-111.68,Silver Horseshoe Inn
520,high prairie,CA,55.43,-116.48,Peavine Inn & Suites
521,high rock,BS,26.63,-78.28,
522,raudeberg,NO,61.99,5.14,Ulvesund FYR
523,kununurra,AU,-15.77,128.74,The Kimberley Grande Resort
524,mogadishu,SO,2.04,45.34,Dolphin Hotel
525,mecca,SA,21.43,39.83,Pullman Zamzam Makkah
526,viedma,AR,-40.81,-62.99,Platinum Apart
527,tomatlan,MX,19.93,-105.25,Hotel Campanario
528,lyuban,BY,52.8,28.0,
529,bonavista,CA,48.65,-53.11,Butler's By the Sea B&B
530,hirara,JP,24.8,125.28,Grand Bleu Gamin
531,russell,AR,-33.01,-68.8,Esplendor by Wyndham Mendoza
532,burns lake,CA,54.23,-125.76,Lakeland Hotel
533,hakkari,FI,61.34,23.75,
534,marzuq,YE,14.4,46.47,
535,villaviciosa,ES,43.48,-5.43,Hotel Avenida Real
536,padang,ID,-0.92,100.36,ibis Padang
537,matam,SN,15.66,-13.26,Hotel de Matam
538,la seyne-sur-mer,FR,43.1,5.88,Celenya Hôtel
539,palu,ID,-0.9,119.87,Hotel Santika Palu
540,talmenka,RU,53.82,83.56,Zevs
541,tamworth,AU,-31.09,150.93,Tamworth City Motel
542,perth,GB,56.4,-3.43,Holiday Inn Express Perth
543,yabrud,SY,33.97,36.66,
544,paraiso,MX,24.01,-104.61,Hotel Victoria Express
545,veraval,FR,49.65,0.71,Hotel du Havre
546,novyy urgal,RU,51.07,132.56,Sberbank Rossii
547,tongren,CN,27.72,109.18,Wanshanhong Hotel
